{
  "type": "FeatureCollection",
  "name": "districts",
  "crs": { "type": "name", "properties": { "name": "urn:ogc:def:crs:OGC:1.3:CRS84" } },
  "features": [
    {
      "type": "Feature",
      "properties": { "district_code": "KNC", "district_name": "Kanchipuram", "state_code": "TN", "state_name": "Tamil Nadu", "source": "MOCK_SURVEY" },
      "geometry": {
        "type": "MultiPolygon",
        "coordinates": [[[[79.5, 12.5], [80.1, 12.5], [80.1, 13.1], [79.5, 13.1], [79.5, 12.5]]]]
      }
    },
    {
      "type": "Feature",
      "properties": { "district_code": "PUNE", "district_name": "Pune", "state_code": "MH", "state_name": "Maharashtra", "source": "MOCK_SURVEY" },
      "geometry": {
        "type": "MultiPolygon",
        "coordinates": [[[[73.3, 18.1], [74.5, 18.1], [74.5, 19.2], [73.3, 19.2], [73.3, 18.1]]]]
      }
    },
    {
      "type": "Feature",
      "properties": { "district_code": "BLR", "district_name": "Bengaluru Urban", "state_code": "KA", "state_name": "Karnataka", "source": "MOCK_SURVEY" },
      "geometry": {
        "type": "MultiPolygon",
        "coordinates": [[[[77.4, 12.8], [77.8, 12.8], [77.8, 13.2], [77.4, 13.2], [77.4, 12.8]]]]
      }
    },
    {
      "type": "Feature",
      "properties": { "district_code": "NDL", "district_name": "New Delhi", "state_code": "DL", "state_name": "Delhi NCR", "source": "MOCK_SURVEY" },
      "geometry": {
        "type": "MultiPolygon",
        "coordinates": [[[[77.1, 28.5], [77.3, 28.5], [77.3, 28.7], [77.1, 28.7], [77.1, 28.5]]]]
      }
    }
  ]
}
