{
  "type": "FeatureCollection",
  "name": "landuse",
  "crs": { "type": "name", "properties": { "name": "urn:ogc:def:crs:OGC:1.3:CRS84" } },
  "features": [
    {
      "type": "Feature",
      "properties": { "classification": "Industrial SIPCOT", "current_use": "Hyundai Motor Factory & Ancillary Sheds", "source": "MOCK_SURVEY" },
      "geometry": {
        "type": "MultiPolygon",
        "coordinates": [[[[79.94, 12.94], [79.96, 12.94], [79.96, 12.96], [79.94, 12.96], [79.94, 12.94]]]]
      }
    },
    {
      "type": "Feature",
      "properties": { "classification": "Agricultural Nanjai Wet", "current_use": "Protected Paddy Farmlands", "source": "MOCK_SURVEY" },
      "geometry": {
        "type": "MultiPolygon",
        "coordinates": [[[[79.96, 12.93], [79.98, 12.93], [79.98, 12.95], [79.96, 12.95], [79.96, 12.93]]]]
      }
    }
  ]
}
