{
  "type": "FeatureCollection",
  "name": "villages",
  "crs": { "type": "name", "properties": { "name": "urn:ogc:def:crs:OGC:1.3:CRS84" } },
  "features": [
    {
      "type": "Feature",
      "properties": { "village_code": "VIL-IRU", "village_name": "Irungattukottai", "subdistrict": "Sriperumbudur", "district_name": "Kanchipuram", "state_name": "Tamil Nadu", "source": "MOCK_SURVEY" },
      "geometry": {
        "type": "MultiPolygon",
        "coordinates": [[[[79.94, 12.94], [79.96, 12.94], [79.96, 12.96], [79.94, 12.96], [79.94, 12.94]]]]
      }
    },
    {
      "type": "Feature",
      "properties": { "village_code": "VIL-PEN", "village_name": "Pennalur", "subdistrict": "Sriperumbudur", "district_name": "Kanchipuram", "state_name": "Tamil Nadu", "source": "MOCK_SURVEY" },
      "geometry": {
        "type": "MultiPolygon",
        "coordinates": [[[[79.96, 12.93], [79.98, 12.93], [79.98, 12.95], [79.96, 12.95], [79.96, 12.93]]]]
      }
    },
    {
      "type": "Feature",
      "properties": { "village_code": "VIL-MAM", "village_name": "Mambakkam", "subdistrict": "Sriperumbudur", "district_name": "Kanchipuram", "state_name": "Tamil Nadu", "source": "MOCK_SURVEY" },
      "geometry": {
        "type": "MultiPolygon",
        "coordinates": [[[[79.96, 12.94], [79.97, 12.94], [79.97, 12.95], [79.96, 12.95], [79.96, 12.94]]]]
      }
    }
  ]
}
